[Satellite]
VERSION=1.1
NAME=ABS-7 (KOREASAT 3)
NICKNAME=ABS-7 (KOREASAT 3)
TLE1=1 25894U 99046A   17186.11438139 -.00000367  00000-0  00000-0 0  9996
TLE2=2 25894   0.0159  23.8858 0002921  78.5657 338.1459  1.00271206 64351
